[{"OBJECT_NAME":"STARLINK-31708","OBJECT_ID":"2024-065U","EPOCH":"2026-03-09T21:22:13.929600","MEAN_MOTION":15.30185949,"ECCENTRICITY":0.00011779,"INCLINATION":53.1597,"RA_OF_ASC_NODE":280.4878,"ARG_OF_PERICENTER":103.4004,"MEAN_ANOMALY":256.7128,"EPHEMERIS_TYPE":0,"CLASSIFICATION_TYPE":"U","NORAD_CAT_ID":59439,"ELEMENT_SET_NO":999,"REV_AT_EPOCH":10896,"BSTAR":9.127282e-6,"MEAN_MOTION_DOT":-8.9e-7,"MEAN_MOTION_DDOT":0},{"OBJECT_NAME":"FLOCK 4BE-27","OBJECT_ID":"2024-149AX","EPOCH":"2026-03-09T18:04:53.053248","MEAN_MOTION":15.32593322,"ECCENTRICITY":0.00027324,"INCLINATION":97.3862,"RA_OF_ASC_NODE":150.6783,"ARG_OF_PERICENTER":305.898,"MEAN_ANOMALY":54.2008,"EPHEMERIS_TYPE":0,"CLASSIFICATION_TYPE":"U","NORAD_CAT_ID":60513,"ELEMENT_SET_NO":999,"REV_AT_EPOCH":8690,"BSTAR":0.00036576028,"MEAN_MOTION_DOT":0.00011439,"MEAN_MOTION_DDOT":0}]
